date:2024-08-30T03:18:52+00:00
validtle:
invalidtleinfo:Invalid TLE contents
timestamp:2024-08-30T03:18:52+00:00
TLE:
STARLINK-2331
1 47875U 21023R   24242.76090242 -.00000267  00000+0  94126-6 0  9994
2 47875  53.0528 251.7702 0001303  89.7794 270.3345 15.06403386191776